STARLINK-33955          
1 63902U 25095N   26160.30552164  .00011824  00000+0  43834-3 0  9992
2 63902  42.9984  18.4427 0002374 269.4291  90.6289 15.27592741 61793
STARLINK-34097          
1 63903U 25095P   26160.91668981  .00012988  00000+0  48080-3 0  9995
2 63903  43.0037  15.2460 0001330 275.0651 103.8014 15.27569928  5669
STARLINK-34092          
1 63904U 25095Q   26159.89664442  .00013243  00000+0  48963-3 0  9994
2 63904  43.0015  21.3966 0002150 267.1269  92.9337 15.27597325 61720
STARLINK-34114          
1 63905U 25095R   26160.29666960  .00014038  00000+0  51819-3 0  9995
2 63905  42.9980  19.2410 0002491 271.2806  88.7760 15.27610261 61785
STARLINK-33770          
1 63906U 25095S   26160.31451880  .00014801  00000+0  54601-3 0  9992
2 63906  43.0018  18.5042 0000729 291.1606  68.9168 15.27598322 61790
STARLINK-34106          
1 63907U 25095T   26160.31065050  .00016601  00000+0  61059-3 0  9998
2 63907  42.9826  18.4750 0003789 267.0120  93.0298 15.27619649 61792
STARLINK-34083          
1 63908U 25095U   26160.29281875  .00011688  00000+0  43336-3 0  9999
2 63908  42.9983  19.2106 0001865 287.3604  72.7043 15.27595445 61784
STARLINK-34066          
1 63909U 25095V   26159.88636727  .00015915  00000+0  58677-3 0  9994
2 63909  42.9997  21.3168 0002863 272.8791  87.1733 15.27568406 61724
STARLINK-34071          
1 63910U 25095W   26159.89279488  .00014160  00000+0  52291-3 0  9991
2 63910  43.0012  21.3652 0002171 280.3947  79.6660 15.27591027 61723
STARLINK-34038          
1 63911U 25095X   26160.33638083  .00020548  00000+0  75425-3 0  9994
2 63911  43.0037  18.6727 0001744 269.5139  90.5513 15.27575650 61790
STARLINK-34031          
1 63912U 25095Y   26159.88252610  .00024027  00000+0  87963-3 0  9997
2 63912  43.0062  21.2828 0001687 212.3700 147.7048 15.27586968 61722
STARLINK-34070          
1 63913U 25095Z   26160.33253024  .00015273  00000+0  56333-3 0  9990
2 63913  43.0011  18.6437 0000240  73.7217 286.3661 15.27582331 61797
STARLINK-34068          
1 63914U 25095AA  26160.32222849  .00018122  00000+0  66607-3 0  9992
2 63914  43.0028  18.5642 0001935 277.2810  82.7822 15.27598047 61793
STARLINK-34076          
1 63915U 25095AB  26160.32863735  .00018879  00000+0  69301-3 0  9991
2 63915  43.0035  18.6130 0003883 270.5308  89.5098 15.27613515 61795
STARLINK-33910          
1 63916U 25095AC  26160.30680672  .00022456  00000+0  82308-3 0  9995
2 63916  43.0018  18.4474 0001584 272.7958  87.2712 15.27579376 61791
STARLINK-34075          
1 63917U 25095AD  26160.64530797  .00013296  00000+0  49188-3 0  9996
2 63917  43.0007  16.6838 0000211 267.6007  92.4821 15.27573851 61845
STARLINK-34012          
1 63926U 25098A   26160.71314698  .00001231  00000+0  11091-3 0  9995
2 63926  70.0029  42.5616 0002956 264.6163  95.4659 14.98335630 60376
STARLINK-33956          
1 63927U 25098B   26160.73399389  .00002459  00000+0  21377-3 0  9999
2 63927  70.0020  42.2250 0002849 267.4864  92.5969 14.98332236 60358
STARLINK-33997          
1 63928U 25098C   26160.72566977 -.00000419  00000+0 -27297-4 0  9992
2 63928  70.0023  42.5952 0002760 268.5315  91.5528 14.98337752 60357
STARLINK-33989          
1 63929U 25098D   26160.70079173  .00001224  00000+0  11032-3 0  9990
2 63929  70.0022  42.5140 0002859 269.1825  90.9006 14.98333315 60353
STARLINK-33980          
1 63930U 25098E   26160.78825532  .00003292  00000+0  28347-3 0  9992
2 63930  70.0029  42.4221 0002760 264.2273  95.8572 14.98336807 60367
STARLINK-33994          
1 63931U 25098F   26160.69661905  .00003530  00000+0  30342-3 0  9998
2 63931  70.0021  42.4995 0002677 263.4790  96.6065 14.98336898 60355
STARLINK-33971          
1 63932U 25098G   26160.78424754  .00001402  00000+0  12523-3 0  9995
2 63932  70.0024  42.4067 0002882 269.1679  90.9150 14.98334298 60361
STARLINK-33877          
1 63933U 25098H   26160.73816686  .00001191  00000+0  10762-3 0  9998
2 63933  70.0016  42.2313 0002819 268.2416  91.8420 14.98332214 60360
STARLINK-33895          
1 63934U 25098J   26160.74668115  .00002414  00000+0  21000-3 0  9998
2 63934  70.0018  42.2705 0002947 267.9772  92.1050 14.98333982 60367
STARLINK-34005          
1 63935U 25098K   26160.78841918  .00003325  00000+0  28626-3 0  9990
2 63935  70.0019  42.4148 0003006 263.2445  96.8372 14.98338154 60358
STARLINK-34027          
1 63936U 25098L   26160.72997986  .00001242  00000+0  11187-3 0  9992
2 63936  70.0024  42.2090 0002640 270.0809  90.0048 14.98335521 60342
STARLINK-34035          
1 63937U 25098M   26160.69244346  .00003370  00000+0  29007-3 0  9998
2 63937  70.0024  42.4840 0002938 273.0712  87.0111 14.98337197 60331
STARLINK-33988          
1 63938U 25098N   26160.70479941  .00002031  00000+0  17793-3 0  9994
2 63938  70.0022  42.5290 0003520 268.3069  91.7686 14.98334444 60331
STARLINK-34020          
1 63939U 25098P   26160.74250782  .00005408  00000+0  46058-3 0  9996
2 63939  70.0026  42.2555 0002721 272.0488  88.0359 14.98335536 60346
