OBJECT_NAME,OBJECT_ID,EPOCH,MEAN_MOTION,ECCENTRICITY,INCLINATION,RA_OF_ASC_NODE,ARG_OF_PERICENTER,MEAN_ANOMALY,EPHEMERIS_TYPE,CLASSIFICATION_TYPE,NORAD_CAT_ID,ELEMENT_SET_NO,REV_AT_EPOCH,BSTAR,MEAN_MOTION_DOT,MEAN_MOTION_DDOT
STARLINK-33955,2025-095N,2026-06-09T07:19:57.069696,15.27592741,.00023741,42.9984,18.4427,269.4291,90.6289,0,U,63902,999,6179,.4383388E-3,.11824E-3,0
STARLINK-34097,2025-095P,2026-06-09T22:00:01.999584,15.27569928,.00013308,43.0037,15.2460,275.0651,103.8014,0,U,63903,999,566,.48079534E-3,.12988E-3,0
STARLINK-34092,2025-095Q,2026-06-08T21:31:10.077888,15.27597325,.00021504,43.0015,21.3966,267.1269,92.9337,0,U,63904,999,6172,.48962844E-3,.13243E-3,0
STARLINK-34114,2025-095R,2026-06-09T07:07:12.253440,15.27610261,.00024913,42.9980,19.2410,271.2806,88.7760,0,U,63905,999,6178,.51818732E-3,.14038E-3,0
STARLINK-33770,2025-095S,2026-06-09T07:32:54.424320,15.27598322,.00007293,43.0018,18.5042,291.1606,68.9168,0,U,63906,999,6179,.54600565E-3,.14801E-3,0
STARLINK-34106,2025-095T,2026-06-09T07:27:20.203200,15.27619649,.00037899,42.9826,18.4750,267.0120,93.0298,0,U,63907,999,6179,.61058899E-3,.16601E-3,0
STARLINK-34083,2025-095U,2026-06-09T07:01:39.540000,15.27595445,.00018658,42.9983,19.2106,287.3604,72.7043,0,U,63908,999,6178,.43336352E-3,.11688E-3,0
STARLINK-34066,2025-095V,2026-06-08T21:16:22.132128,15.27568406,.0002863,42.9997,21.3168,272.8791,87.1733,0,U,63909,999,6172,.58677185E-3,.15915E-3,0
STARLINK-34071,2025-095W,2026-06-08T21:25:37.477632,15.27591027,.00021712,43.0012,21.3652,280.3947,79.6660,0,U,63910,999,6172,.52291415E-3,.1416E-3,0
STARLINK-34038,2025-095X,2026-06-09T08:04:23.303712,15.27575650,.00017447,43.0037,18.6727,269.5139,90.5513,0,U,63911,999,6179,.75425272E-3,.20548E-3,0
STARLINK-34031,2025-095Y,2026-06-08T21:10:50.255040,15.27586968,.00016875,43.0062,21.2828,212.3700,147.7048,0,U,63912,999,6172,.87962736E-3,.24027E-3,0
STARLINK-34070,2025-095Z,2026-06-09T07:58:50.612736,15.27582331,.00002405,43.0011,18.6437,73.7217,286.3661,0,U,63913,999,6179,.56332873E-3,.15273E-3,0
STARLINK-34068,2025-095AA,2026-06-09T07:44:00.541536,15.27598047,.00019355,43.0028,18.5642,277.2810,82.7822,0,U,63914,999,6179,.66607338E-3,.18122E-3,0
STARLINK-34076,2025-095AB,2026-06-09T07:53:14.267040,15.27613515,.00038835,43.0035,18.6130,270.5308,89.5098,0,U,63915,999,6179,.69300533E-3,.18879E-3,0
STARLINK-33910,2025-095AC,2026-06-09T07:21:48.100608,15.27579376,.00015841,43.0018,18.4474,272.7958,87.2712,0,U,63916,999,6179,.82308014E-3,.22456E-3,0
STARLINK-34075,2025-095AD,2026-06-09T15:29:14.608608,15.27573851,.00002115,43.0007,16.6838,267.6007,92.4821,0,U,63917,999,6184,.49188273E-3,.13296E-3,0
STARLINK-34012,2025-098A,2026-06-09T17:06:55.899072,14.98335630,.0002956,70.0029,42.5616,264.6163,95.4659,0,U,63926,999,6037,.11091218E-3,.1231E-4,0
STARLINK-33956,2025-098B,2026-06-09T17:36:57.072096,14.98332236,.00028492,70.0020,42.2250,267.4864,92.5969,0,U,63927,999,6035,.21376771E-3,.2459E-4,0
STARLINK-33997,2025-098C,2026-06-09T17:24:57.868128,14.98337752,.00027608,70.0023,42.5952,268.5315,91.5528,0,U,63928,999,6035,-.27296685E-4,-.419E-5,0
STARLINK-33989,2025-098D,2026-06-09T16:49:08.405472,14.98333315,.00028599,70.0022,42.5140,269.1825,90.9006,0,U,63929,999,6035,.11031815E-3,.1224E-4,0
STARLINK-33980,2025-098E,2026-06-09T18:55:05.259648,14.98336807,.000276,70.0029,42.4221,264.2273,95.8572,0,U,63930,999,6036,.28347329E-3,.3292E-4,0
STARLINK-33994,2025-098F,2026-06-09T16:43:07.885920,14.98336898,.00026773,70.0021,42.4995,263.4790,96.6065,0,U,63931,999,6035,.30342016E-3,.353E-4,0
STARLINK-33971,2025-098G,2026-06-09T18:49:18.987456,14.98334298,.0002882,70.0024,42.4067,269.1679,90.9150,0,U,63932,999,6036,.12523088E-3,.1402E-4,0
STARLINK-33877,2025-098H,2026-06-09T17:42:57.616704,14.98332214,.00028197,70.0016,42.2313,268.2416,91.8420,0,U,63933,999,6036,.10762106E-3,.1191E-4,0
STARLINK-33895,2025-098J,2026-06-09T17:55:13.251360,14.98333982,.0002947,70.0018,42.2705,267.9772,92.1050,0,U,63934,999,6036,.21000092E-3,.2414E-4,0
STARLINK-34005,2025-098K,2026-06-09T18:55:19.417152,14.98338154,.00030067,70.0019,42.4148,263.2445,96.8372,0,U,63935,999,6035,.28625507E-3,.3325E-4,0
STARLINK-34027,2025-098L,2026-06-09T17:31:10.259904,14.98335521,.00026404,70.0024,42.2090,270.0809,90.0048,0,U,63936,999,6034,.11186865E-3,.1242E-4,0
STARLINK-34035,2025-098M,2026-06-09T16:37:07.114944,14.98337197,.00029383,70.0024,42.4840,273.0712,87.0111,0,U,63937,999,6033,.29006823E-3,.337E-4,0
STARLINK-33988,2025-098N,2026-06-09T16:54:54.669024,14.98334444,.00035205,70.0022,42.5290,268.3069,91.7686,0,U,63938,999,6033,.1779252E-3,.2031E-4,0
STARLINK-34020,2025-098P,2026-06-09T17:49:12.675648,14.98335536,.00027214,70.0026,42.2555,272.0488,88.0359,0,U,63939,999,6034,.46057872E-3,.5408E-4,0
